{
  "norad_id": 66461,
  "name": "STARLINK-35132",
  "history": [
    {
      "epoch": "2026-03-28T18:01:58.876896Z",
      "apogee_km": 484.31652243698954,
      "perigee_km": 481.51981912827523,
      "latitude_deg": -9.813275587881822e-06,
      "longitude_deg": 91.68974339509819,
      "height_km": 482.3524292471946,
      "semi_major_axis_km": 6861.055170782633,
      "eccentricity": 0.00020381,
      "inclination_deg": 43.0006,
      "raan_deg": 188.3524,
      "arg_perigee_deg": 284.1993,
      "mean_anomaly_deg": 75.8632,
      "mean_motion_rev_day": 15.27623725
    }
  ]
}